{"type": "FeatureCollection", "features": [{"type": "Feature", "properties": {"norad_id": 22490, "name": "SCD 1", "group": "resource", "lat": 4.413605363392686, "lon": 21.991670703488666, "alt_km": 735.7146906374765, "timestamp": "2025-12-23T14:49:08.985754+00:00", "meta": {"OBJECT_NAME": "SCD 1", "OBJECT_ID": "1993-009B", "EPOCH": "2025-12-22T16:44:45.352896", "MEAN_MOTION": 14.46005268, "ECCENTRICITY": 0.0042167, "INCLINATION": 24.9679, "RA_OF_ASC_NODE": 217.2144, "ARG_OF_PERICENTER": 70.2904, "MEAN_ANOMALY": 341.2341, "EPHEMERIS_TYPE": 0, "CLASSIFICATION_TYPE": "U", "NORAD_CAT_ID": 22490, "ELEMENT_SET_NO": 999, "REV_AT_EPOCH": 73554, "BSTAR": 7.1091153e-05, "MEAN_MOTION_DOT": 4.45e-06, "MEAN_MOTION_DDOT": 0}, "tle": {"line1": "1 22490U 93009B   25356.69774714  .00000445  00000+0  71091-4 0  9998", "line2": "2 22490  24.9679 217.2144 0042167  70.2904 341.2341 14.46005268735547"}}, "geometry": {"type": "Point", "coordinates": [21.991670703488666, 4.413605363392686]}}, {"type": "Feature", "properties": {"norad_id": 25397, "name": "TECHSAT 1B (GO-32)", "group": "resource", "lat": 62.33662195475364, "lon": 178.66538339192496, "alt_km": 804.1818312765599, "timestamp": "2025-12-23T14:49:08.985787+00:00", "meta": {"OBJECT_NAME": "TECHSAT 1B (GO-32)", "OBJECT_ID": "1998-043D", "EPOCH": "2025-12-23T05:50:46.136256", "MEAN_MOTION": 14.24379829, "ECCENTRICITY": 0.00017253, "INCLINATION": 98.9932, "RA_OF_ASC_NODE": 340.6986, "ARG_OF_PERICENTER": 40.4512, "MEAN_ANOMALY": 319.6794, "EPHEMERIS_TYPE": 0, "CLASSIFICATION_TYPE": "U", "NORAD_CAT_ID": 25397, "ELEMENT_SET_NO": 999, "REV_AT_EPOCH": 42628, "BSTAR": 5.1678998e-05, "MEAN_MOTION_DOT": 7.3e-07, "MEAN_MOTION_DDOT": 0}, "tle": {"line1": "1 25397U 98043D   25357.24358954  .00000073  00000+0  51679-4 0  9993", "line2": "2 25397  98.9932 340.6986 0001725  40.4512 319.6794 14.24379829426285"}}, "geometry": {"type": "Point", "coordinates": [178.66538339192496, 62.33662195475364]}}, {"type": "Feature", "properties": {"norad_id": 25504, "name": "SCD 2", "group": "resource", "lat": 0.6276884430520796, "lon": -106.52372613491781, "alt_km": 742.7262777253773, "timestamp": "2025-12-23T14:49:08.985804+00:00", "meta": {"OBJECT_NAME": "SCD 2", "OBJECT_ID": "1998-060A", "EPOCH": "2025-12-23T05:50:04.452576", "MEAN_MOTION": 14.45428767, "ECCENTRICITY": 0.00170521, "INCLINATION": 24.9951, "RA_OF_ASC_NODE": 77.1308, "ARG_OF_PERICENTER": 64.3029, "MEAN_ANOMALY": 322.0335, "EPHEMERIS_TYPE": 0, "CLASSIFICATION_TYPE": "U", "NORAD_CAT_ID": 25504, "ELEMENT_SET_NO": 999, "REV_AT_EPOCH": 43484, "BSTAR": 6.8342516e-05, "MEAN_MOTION_DOT": 4.26e-06, "MEAN_MOTION_DDOT": 0}, "tle": {"line1": "1 25504U 98060A   25357.24310709  .00000426  00000+0  68343-4 0  9996", "line2": "2 25504  24.9951  77.1308 0017052  64.3029 322.0335 14.45428767434842"}}, "geometry": {"type": "Point", "coordinates": [-106.52372613491781, 0.6276884430520796]}}, {"type": "Feature", "properties": {"norad_id": 25757, "name": "DLR-TUBSAT", "group": "resource", "lat": -11.545176242597249, "lon": -15.74977746587299, "alt_km": 732.234515177749, "timestamp": "2025-12-23T14:49:08.985818+00:00", "meta": {"OBJECT_NAME": "DLR-TUBSAT", "OBJECT_ID": "1999-029B", "EPOCH": "2025-12-17T13:22:10.787520", "MEAN_MOTION": 14.52359578, "ECCENTRICITY": 0.00141996, "INCLINATION": 98.6566, "RA_OF_ASC_NODE": 336.2196, "ARG_OF_PERICENTER": 177.8976, "MEAN_ANOMALY": 182.2281, "EPHEMERIS_TYPE": 0, "CLASSIFICATION_TYPE": "U", "NORAD_CAT_ID": 25757, "ELEMENT_SET_NO": 999, "REV_AT_EPOCH": 40688, "BSTAR": 3.7650132e-05, "MEAN_MOTION_DOT": 1.05e-06, "MEAN_MOTION_DDOT": 0}, "tle": {"line1": "1 25757U 99029B   25351.55706930  .00000105  00000+0  37650-4 0  9996", "line2": "2 25757  98.6566 336.2196 0014199 177.8976 182.2281 14.52359578406886"}}, "geometry": {"type": "Point", "coordinates": [-15.74977746587299, -11.545176242597249]}}, {"type": "Feature", "properties": {"norad_id": 25994, "name": "TERRA", "group": "resource", "lat": 24.923988761630074, "lon": 45.16754102928838, "alt_km": 687.8386434582098, "timestamp": "2025-12-23T14:49:08.985832+00:00", "meta": {"OBJECT_NAME": "TERRA", "OBJECT_ID": "1999-068A", "EPOCH": "2025-12-23T03:34:58.492704", "MEAN_MOTION": 14.6091306, "ECCENTRICITY": 0.00034695, "INCLINATION": 97.9733, "RA_OF_ASC_NODE": 48.451, "ARG_OF_PERICENTER": 73.6837, "MEAN_ANOMALY": 10.827, "EPHEMERIS_TYPE": 0, "CLASSIFICATION_TYPE": "U", "NORAD_CAT_ID": 25994, "ELEMENT_SET_NO": 999, "REV_AT_EPOCH": 38390, "BSTAR": 0.00010325752, "MEAN_MOTION_DOT": 4.61e-06, "MEAN_MOTION_DDOT": 0}, "tle": {"line1": "1 25994U 99068A   25357.14928811  .00000461  00000+0  10326-3 0  9992", "line2": "2 25994  97.9733  48.4510 0003469  73.6837  10.8270 14.60913060383908"}}, "geometry": {"type": "Point", "coordinates": [45.16754102928838, 24.923988761630074]}}, {"type": "Feature", "properties": {"norad_id": 27004, "name": "MAROC-TUBSAT", "group": "resource", "lat": 68.05165230399302, "lon": 140.87901367575142, "alt_km": 1005.3809445894831, "timestamp": "2025-12-23T14:49:08.985845+00:00", "meta": {"OBJECT_NAME": "MAROC-TUBSAT", "OBJECT_ID": "2001-056D", "EPOCH": "2025-12-22T23:16:08.579136", "MEAN_MOTION": 13.70253426, "ECCENTRICITY": 0.00192245, "INCLINATION": 99.7916, "RA_OF_ASC_NODE": 165.5937, "ARG_OF_PERICENTER": 233.0099, "MEAN_ANOMALY": 242.8791, "EPHEMERIS_TYPE": 0, "CLASSIFICATION_TYPE": "U", "NORAD_CAT_ID": 27004, "ELEMENT_SET_NO": 999, "REV_AT_EPOCH": 20205, "BSTAR": 2.50177e-05, "MEAN_MOTION_DOT": -2.5e-07, "MEAN_MOTION_DDOT": 0}, "tle": {"line1": "1 27004U 01056D   25356.96954374 -.00000025  00000+0  25018-4 0  9990", "line2": "2 27004  99.7916 165.5937 0019224 233.0099 242.8791 13.70253426202051"}}, "geometry": {"type": "Point", "coordinates": [140.87901367575142, 68.05165230399302]}}, {"type": "Feature", "properties": {"norad_id": 27424, "name": "AQUA", "group": "resource", "lat": -62.42187795900702, "lon": -24.88106843198996, "alt_km": 695.497650358795, "timestamp": "2025-12-23T14:49:08.985858+00:00", "meta": {"OBJECT_NAME": "AQUA", "OBJECT_ID": "2002-022A", "EPOCH": "2025-12-23T02:23:06.539136", "MEAN_MOTION": 14.61823033, "ECCENTRICITY": 0.00014844, "INCLINATION": 98.4053, "RA_OF_ASC_NODE": 318.1475, "ARG_OF_PERICENTER": 109.241, "MEAN_ANOMALY": 342.3415, "EPHEMERIS_TYPE": 0, "CLASSIFICATION_TYPE": "U", "NORAD_CAT_ID": 27424, "ELEMENT_SET_NO": 999, "REV_AT_EPOCH": 25754, "BSTAR": 0.00019102714, "MEAN_MOTION_DOT": 9.05e-06, "MEAN_MOTION_DDOT": 0}, "tle": {"line1": "1 27424U 02022A   25357.09938124  .00000905  00000+0  19103-3 0  9993", "line2": "2 27424  98.4053 318.1475 0001484 109.2410 342.3415 14.61823033257549"}}, "geometry": {"type": "Point", "coordinates": [-24.88106843198996, -62.42187795900702]}}, {"type": "Feature", "properties": {"norad_id": 28051, "name": "IRS-P6 (RESOURCESAT-1)", "group": "resource", "lat": -54.003869280820645, "lon": -153.95228213453106, "alt_km": 775.4193631426779, "timestamp": "2025-12-23T14:49:08.985871+00:00", "meta": {"OBJECT_NAME": "IRS-P6 (RESOURCESAT-1)", "OBJECT_ID": "2003-046A", "EPOCH": "2025-12-23T07:28:03.612288", "MEAN_MOTION": 14.3607988, "ECCENTRICITY": 0.00648027, "INCLINATION": 98.2161, "RA_OF_ASC_NODE": 37.2278, "ARG_OF_PERICENTER": 149.0835, "MEAN_ANOMALY": 302.2513, "EPHEMERIS_TYPE": 0, "CLASSIFICATION_TYPE": "U", "NORAD_CAT_ID": 28051, "ELEMENT_SET_NO": 999, "REV_AT_EPOCH": 15528, "BSTAR": 0.00013815494, "MEAN_MOTION_DOT": 3.71e-06, "MEAN_MOTION_DDOT": 0}, "tle": {"line1": "1 28051U 03046A   25357.31115292  .00000371  00000+0  13815-3 0  9996", "line2": "2 28051  98.2161  37.2278 0064802 149.0835 302.2513 14.36079880155287"}}, "geometry": {"type": "Point", "coordinates": [-153.95228213453106, -54.003869280820645]}}, {"type": "Feature", "properties": {"norad_id": 28220, "name": "SHIYAN-1 (SY-1)", "group": "resource", "lat": 65.83030501075166, "lon": -102.19639467440523, "alt_km": 477.60446383075214, "timestamp": "2025-12-23T14:49:08.985884+00:00", "meta": {"OBJECT_NAME": "SHIYAN-1 (SY-1)", "OBJECT_ID": "2004-012A", "EPOCH": "2025-12-22T14:45:27.777312", "MEAN_MOTION": 15.28385055, "ECCENTRICITY": 0.00051571, "INCLINATION": 97.892, "RA_OF_ASC_NODE": 58.737, "ARG_OF_PERICENTER": 284.0622, "MEAN_ANOMALY": 76.0043, "EPHEMERIS_TYPE": 0, "CLASSIFICATION_TYPE": "U", "NORAD_CAT_ID": 28220, "ELEMENT_SET_NO": 999, "REV_AT_EPOCH": 18407, "BSTAR": 0.00053102877, "MEAN_MOTION_DOT": 0.00014614, "MEAN_MOTION_DDOT": 0}, "tle": {"line1": "1 28220U 04012A   25356.61490483  .00014614  00000+0  53103-3 0  9997", "line2": "2 28220  97.8920  58.7370 0005157 284.0622  76.0043 15.28385055184075"}}, "geometry": {"type": "Point", "coordinates": [-102.19639467440523, 65.83030501075166]}}, {"type": "Feature", "properties": {"norad_id": 28376, "name": "AURA", "group": "resource", "lat": 33.489536882758124, "lon": -57.66067545710756, "alt_km": 687.4019816696882, "timestamp": "2025-12-23T14:49:08.985898+00:00", "meta": {"OBJECT_NAME": "AURA", "OBJECT_ID": "2004-026A", "EPOCH": "2025-12-23T03:09:30.661632", "MEAN_MOTION": 14.60969302, "ECCENTRICITY": 0.00014033, "INCLINATION": 98.3201, "RA_OF_ASC_NODE": 307.4073, "ARG_OF_PERICENTER": 91.9299, "MEAN_ANOMALY": 268.2062, "EPHEMERIS_TYPE": 0, "CLASSIFICATION_TYPE": "U", "NORAD_CAT_ID": 28376, "ELEMENT_SET_NO": 999, "REV_AT_EPOCH": 14050, "BSTAR": 0.00021272899, "MEAN_MOTION_DOT": 9.95e-06, "MEAN_MOTION_DDOT": 0}, "tle": {"line1": "1 28376U 04026A   25357.13160488  .00000995  00000+0  21273-3 0  9991", "line2": "2 28376  98.3201 307.4073 0001403  91.9299 268.2062 14.60969302140508"}}, "geometry": {"type": "Point", "coordinates": [-57.66067545710756, 33.489536882758124]}}]}